[{"OBJECT_NAME":"IRIDIUM 33","OBJECT_ID":"1997-051C","EPOCH":"2026-03-28T13:14:29.670720","MEAN_MOTION":14.35112318,"ECCENTRICITY":0.00062865,"INCLINATION":86.3913,"RA_OF_ASC_NODE":23.7859,"ARG_OF_PERICENTER":217.7709,"MEAN_ANOMALY":142.3047,"EPHEMERIS_TYPE":0,"CLASSIFICATION_TYPE":"U","NORAD_CAT_ID":24946,"ELEMENT_SET_NO":999,"REV_AT_EPOCH":49352,"BSTAR":9.5266607e-5,"MEAN_MOTION_DOT":2.91e-6,"MEAN_MOTION_DDOT":0},{"OBJECT_NAME":"IRIDIUM 33 DEB","OBJECT_ID":"1997-051L","EPOCH":"2026-03-28T18:47:34.852128","MEAN_MOTION":14.4352232,"ECCENTRICITY":0.0011694,"INCLINATION":86.406,"RA_OF_ASC_NODE":15.6373,"ARG_OF_PERICENTER":151.815,"MEAN_ANOMALY":208.3686,"EPHEMERIS_TYPE":0,"CLASSIFICATION_TYPE":"U","NORAD_CAT_ID":33773,"ELEMENT_SET_NO":999,"REV_AT_EPOCH":89877,"BSTAR":0.000304,"MEAN_MOTION_DOT":1.049e-5,"MEAN_MOTION_DDOT":0},{"OBJECT_NAME":"IRIDIUM 33 DEB","OBJECT_ID":"1997-051N","EPOCH":"2026-03-28T18:24:52.145280","MEAN_MOTION":14.41816241,"ECCENTRICITY":0.0012876,"INCLINATION":86.3685,"RA_OF_ASC_NODE":4.2813,"ARG_OF_PERICENTER":162.6828,"MEAN_ANOMALY":250.7314,"EPHEMERIS_TYPE":0,"CLASSIFICATION_TYPE":"U","NORAD_CAT_ID":33775,"ELEMENT_SET_NO":999,"REV_AT_EPOCH":89668,"BSTAR":0.00043902,"MEAN_MOTION_DOT":1.455e-5,"MEAN_MOTION_DDOT":0},{"OBJECT_NAME":"IRIDIUM 33 DEB","OBJECT_ID":"1997-051P","EPOCH":"2026-03-28T19:51:51.342048","MEAN_MOTION":14.3843814,"ECCENTRICITY":0.0013209,"INCLINATION":86.4061,"RA_OF_ASC_NODE":36.1879,"ARG_OF_PERICENTER":201.8125,"MEAN_ANOMALY":217.0855,"EPHEMERIS_TYPE":0,"CLASSIFICATION_TYPE":"U","NORAD_CAT_ID":33776,"ELEMENT_SET_NO":999,"REV_AT_EPOCH":89607,"BSTAR":0.00027035,"MEAN_MOTION_DOT":8.45e-6,"MEAN_MOTION_DDOT":0},{"OBJECT_NAME":"IRIDIUM 33 DEB","OBJECT_ID":"1997-051Q","EPOCH":"2026-03-28T17:39:26.570880","MEAN_MOTION":14.56426397,"ECCENTRICITY":0.0004553,"INCLINATION":86.3828,"RA_OF_ASC_NODE":349.0777,"ARG_OF_PERICENTER":260.8713,"MEAN_ANOMALY":99.198,"EPHEMERIS_TYPE":0,"CLASSIFICATION_TYPE":"U","NORAD_CAT_ID":33777,"ELEMENT_SET_NO":999,"REV_AT_EPOCH":90076,"BSTAR":0.00053604,"MEAN_MOTION_DOT":2.4e-5,"MEAN_MOTION_DDOT":0},{"OBJECT_NAME":"IRIDIUM 33 DEB","OBJECT_ID":"1997-051T","EPOCH":"2026-03-28T17:15:13.209696","MEAN_MOTION":14.42523632,"ECCENTRICITY":0.0010978,"INCLINATION":86.3455,"RA_OF_ASC_NODE":344.6183,"ARG_OF_PERICENTER":170.7557,"MEAN_ANOMALY":243.0178,"EPHEMERIS_TYPE":0,"CLASSIFICATION_TYPE":"U","NORAD_CAT_ID":33850,"ELEMENT_SET_NO":999,"REV_AT_EPOCH":89680,"BSTAR":0.00034928,"MEAN_MOTION_DOT":1.178e-5,"MEAN_MOTION_DDOT":0},{"OBJECT_NAME":"IRIDIUM 33 DEB","OBJECT_ID":"1997-051W","EPOCH":"2026-03-28T08:15:14.733792","MEAN_MOTION":13.99655917,"ECCENTRICITY":0.02068018,"INCLINATION":85.9976,"RA_OF_ASC_NODE":303.4985,"ARG_OF_PERICENTER":272.8693,"MEAN_ANOMALY":264.7911,"EPHEMERIS_TYPE":0,"CLASSIFICATION_TYPE":"U","NORAD_CAT_ID":33853,"ELEMENT_SET_NO":999,"REV_AT_EPOCH":86822,"BSTAR":0.0010132729,"MEAN_MOTION_DOT":1.795e-5,"MEAN_MOTION_DDOT":0},{"OBJECT_NAME":"IRIDIUM 33 DEB","OBJECT_ID":"1997-051AD","EPOCH":"2026-03-28T10:43:15.400992","MEAN_MOTION":14.69342207,"ECCENTRICITY":0.00089832,"INCLINATION":86.386,"RA_OF_ASC_NODE":340.391,"ARG_OF_PERICENTER":353.9892,"MEAN_ANOMALY":182.5308,"EPHEMERIS_TYPE":0,"CLASSIFICATION_TYPE":"U","NORAD_CAT_ID":33860,"ELEMENT_SET_NO":999,"REV_AT_EPOCH":90273,"BSTAR":0.0011692922,"MEAN_MOTION_DOT":6.933e-5,"MEAN_MOTION_DDOT":0},{"OBJECT_NAME":"IRIDIUM 33 DEB","OBJECT_ID":"1997-051AF","EPOCH":"2026-03-28T05:57:19.149120","MEAN_MOTION":14.72282975,"ECCENTRICITY":0.0052226,"INCLINATION":86.4126,"RA_OF_ASC_NODE":350.9144,"ARG_OF_PERICENTER":62.2623,"MEAN_ANOMALY":53.5545,"EPHEMERIS_TYPE":0,"CLASSIFICATION_TYPE":"U","NORAD_CAT_ID":33862,"ELEMENT_SET_NO":999,"REV_AT_EPOCH":90374,"BSTAR":0.0019288,"MEAN_MOTION_DOT":0.00012482,"MEAN_MOTION_DDOT":0},{"OBJECT_NAME":"IRIDIUM 33 DEB","OBJECT_ID":"1997-051AK","EPOCH":"2026-03-28T08:39:24.110208","MEAN_MOTION":14.25842841,"ECCENTRICITY":0.0111027,"INCLINATION":86.3002,"RA_OF_ASC_NODE":48.3091,"ARG_OF_PERICENTER":181.053,"MEAN_ANOMALY":305.7393,"EPHEMERIS_TYPE":0,"CLASSIFICATION_TYPE":"U","NORAD_CAT_ID":33866,"ELEMENT_SET_NO":999,"REV_AT_EPOCH":88315,"BSTAR":0.0010268,"MEAN_MOTION_DOT":2.624e-5,"MEAN_MOTION_DDOT":0},{"OBJECT_NAME":"IRIDIUM 33 DEB","OBJECT_ID":"1997-051AP","EPOCH":"2026-03-28T13:48:03.311712","MEAN_MOTION":14.46500799,"ECCENTRICITY":0.00197854,"INCLINATION":86.3795,"RA_OF_ASC_NODE":12.8693,"ARG_OF_PERICENTER":184.9468,"MEAN_ANOMALY":352.388,"EPHEMERIS_TYPE":0,"CLASSIFICATION_TYPE":"U","NORAD_CAT_ID":33870,"ELEMENT_SET_NO":999,"REV_AT_EPOCH":89666,"BSTAR":0.00069345047,"MEAN_MOTION_DOT":2.52e-5,"MEAN_MOTION_DDOT":0},{"OBJECT_NAME":"IRIDIUM 33 DEB","OBJECT_ID":"1997-051BA","EPOCH":"2026-03-28T10:14:12.871968","MEAN_MOTION":14.5962377,"ECCENTRICITY":0.00530831,"INCLINATION":86.3832,"RA_OF_ASC_NODE":60.6774,"ARG_OF_PERICENTER":173.1855,"MEAN_ANOMALY":346.0119,"EPHEMERIS_TYPE":0,"CLASSIFICATION_TYPE":"U","NORAD_CAT_ID":33881,"ELEMENT_SET_NO":999,"REV_AT_EPOCH":89040,"BSTAR":0.0035030762,"MEAN_MOTION_DOT":0.00017046,"MEAN_MOTION_DDOT":0},{"OBJECT_NAME":"IRIDIUM 33 DEB","OBJECT_ID":"1997-051BD","EPOCH":"2026-03-28T03:33:22.269024","MEAN_MOTION":14.80846582,"ECCENTRICITY":0.00101321,"INCLINATION":86.3694,"RA_OF_ASC_NODE":322.1319,"ARG_OF_PERICENTER":317.006,"MEAN_ANOMALY":200.2497,"EPHEMERIS_TYPE":0,"CLASSIFICATION_TYPE":"U","NORAD_CAT_ID":33884,"ELEMENT_SET_NO":999,"REV_AT_EPOCH":90405,"BSTAR":0.0016960982,"MEAN_MOTION_DOT":0.00013134,"MEAN_MOTION_DDOT":0},{"OBJECT_NAME":"IRIDIUM 33 DEB","OBJECT_ID":"1997-051BF","EPOCH":"2026-03-28T20:31:29.070048","MEAN_MOTION":14.36192794,"ECCENTRICITY":0.0011797,"INCLINATION":86.3873,"RA_OF_ASC_NODE":22.5435,"ARG_OF_PERICENTER":258.8188,"MEAN_ANOMALY":162.0722,"EPHEMERIS_TYPE":0,"CLASSIFICATION_TYPE":"U","NORAD_CAT_ID":33886,"ELEMENT_SET_NO":999,"REV_AT_EPOCH":89575,"BSTAR":0.00019834,"MEAN_MOTION_DOT":5.98e-6,"MEAN_MOTION_DDOT":0},{"OBJECT_NAME":"IRIDIUM 33 DEB","OBJECT_ID":"1997-051BG","EPOCH":"2026-03-28T09:16:44.537376","MEAN_MOTION":14.37339145,"ECCENTRICITY":0.00041576,"INCLINATION":86.3041,"RA_OF_ASC_NODE":317.893,"ARG_OF_PERICENTER":249.1212,"MEAN_ANOMALY":288.3302,"EPHEMERIS_TYPE":0,"CLASSIFICATION_TYPE":"U","NORAD_CAT_ID":33887,"ELEMENT_SET_NO":999,"REV_AT_EPOCH":89682,"BSTAR":0.00012638662,"MEAN_MOTION_DOT":3.97e-6,"MEAN_MOTION_DDOT":0},{"OBJECT_NAME":"IRIDIUM 33 DEB","OBJECT_ID":"1997-051BN","EPOCH":"2026-03-28T06:54:48.836736","MEAN_MOTION":14.56580889,"ECCENTRICITY":0.0018585,"INCLINATION":86.3894,"RA_OF_ASC_NODE":7.9271,"ARG_OF_PERICENTER":98.8109,"MEAN_ANOMALY":30.6009,"EPHEMERIS_TYPE":0,"CLASSIFICATION_TYPE":"U","NORAD_CAT_ID":33953,"ELEMENT_SET_NO":999,"REV_AT_EPOCH":89839,"BSTAR":0.0010945,"MEAN_MOTION_DOT":4.907e-5,"MEAN_MOTION_DDOT":0}]
