IRIDIUM 33              
1 24946U 97051C   26087.55173230  .00000291  00000+0  95267-4 0  9990
2 24946  86.3913  23.7859 0006286 217.7709 142.3047 14.35112318493529
IRIDIUM 33 DEB          
1 33773U 97051L   26087.78304227  .00001049  00000+0  30400-3 0  9994
2 33773  86.4060  15.6373 0011694 151.8150 208.3686 14.43522320898774
IRIDIUM 33 DEB          
1 33775U 97051N   26087.76727020  .00001455  00000+0  43902-3 0  9996
2 33775  86.3685   4.2813 0012876 162.6828 250.7314 14.41816241896689
IRIDIUM 33 DEB          
1 33776U 97051P   26087.82767757  .00000845  00000+0  27035-3 0  9996
2 33776  86.4061  36.1879 0013209 201.8125 217.0855 14.38438140896075
IRIDIUM 33 DEB          
1 33777U 97051Q   26087.73572420  .00002400  00000+0  53604-3 0  9998
2 33777  86.3828 349.0777 0004553 260.8713  99.1980 14.56426397900760
IRIDIUM 33 DEB          
1 33850U 97051T   26087.71890289  .00001178  00000+0  34928-3 0  9993
2 33850  86.3455 344.6183 0010978 170.7557 243.0178 14.42523632896806
IRIDIUM 33 DEB          
1 33853U 97051W   26087.34392053  .00001795  00000+0  10133-2 0  9997
2 33853  85.9976 303.4985 0206801 272.8693 264.7911 13.99655917868225
IRIDIUM 33 DEB          
1 33860U 97051AD  26087.44670603  .00006933  00000+0  11693-2 0  9997
2 33860  86.3860 340.3910 0008983 353.9892 182.5308 14.69342207902736
IRIDIUM 33 DEB          
1 33862U 97051AF  26087.24813830  .00012482  00000+0  19288-2 0  9992
2 33862  86.4126 350.9144 0052226  62.2623  53.5545 14.72282975903742
IRIDIUM 33 DEB          
1 33866U 97051AK  26087.36069572  .00002624  00000+0  10268-2 0  9991
2 33866  86.3002  48.3091 0111027 181.0530 305.7393 14.25842841883156
IRIDIUM 33 DEB          
1 33870U 97051AP  26087.57503833  .00002520  00000+0  69345-3 0  9998
2 33870  86.3795  12.8693 0019785 184.9468 352.3880 14.46500799896669
IRIDIUM 33 DEB          
1 33881U 97051BA  26087.42653787  .00017046  00000+0  35031-2 0  9991
2 33881  86.3832  60.6774 0053083 173.1855 346.0119 14.59623770890403
IRIDIUM 33 DEB          
1 33884U 97051BD  26087.14817441  .00013134  00000+0  16961-2 0  9997
2 33884  86.3694 322.1319 0010132 317.0060 200.2497 14.80846582904057
IRIDIUM 33 DEB          
1 33886U 97051BF  26087.85519757  .00000598  00000+0  19834-3 0  9999
2 33886  86.3873  22.5435 0011797 258.8188 162.0722 14.36192794895751
IRIDIUM 33 DEB          
1 33887U 97051BG  26087.38662659  .00000397  00000+0  12639-3 0  9991
2 33887  86.3041 317.8930 0004157 249.1212 288.3302 14.37339145896821
IRIDIUM 33 DEB          
1 33953U 97051BN  26087.28806524  .00004907  00000+0  10945-2 0  9993
2 33953  86.3894   7.9271 0018585  98.8109  30.6009 14.56580889898390
